KUIPER-00027            
1 63740U 25088S   25222.91668981 -.01270927  00000+0 -46425-1 0  9995
2 63740  51.8762 315.5959 0002020 144.2397 119.7425 15.30456088 16288
KUIPER-00028            
1 63741U 25088T   25222.91668981 -.00422384  00000+0 -13723-1 0  9996
2 63741  51.8742 315.2493 0002611  71.3749 338.8689 15.33152156 16709
KUIPER-00029            
1 63742U 25088U   25222.57433197  .00016616  00000+0  45341-3 0  9996
2 63742  51.8700 317.5460 0004539 115.1897 244.9561 15.37552528 16173
KUIPER-00030            
1 63743U 25088V   25222.91668981 -.00039709  00000+0 -34242-2 0  9993
2 63743  51.8915 323.1340 0013781 100.6948 105.8842 14.96768007 16405
KUIPER-00031            
1 63744U 25088W   25222.91668981 -.00004197  00000+0 -14843-3 0  9993
2 63744  51.8742 315.9481 0003887 108.6026 346.9442 15.25852205 16221
KUIPER-00032            
1 63745U 25088X   25222.56156833  .00014528  00000+0  52040-3 0  9991
2 63745  51.8727 318.1796 0005004  85.3876 274.7679 15.28968356 17168
KUIPER-00033            
1 63746U 25088Y   25222.59570111  .00005521  00000+0  75245-3 0  9999
2 63746  51.9010 340.0498 0002926 184.4587 175.6349 14.79947577 16347
KUIPER-00034            
1 63747U 25088Z   25222.51689093  .00018415  00000+0  48898-3 0  9992
2 63747  51.8724 317.1889 0001377  98.7314 261.3829 15.38324523 16333
